      2.10          N: GNSS NAV DATA                        RINEX VERSION / TYPE
fic2rin                                 05/07/2022 00:17:43 PGM / RUN BY / DATE
                                                            END OF HEADER
8  22  5  6  1 59 44.0 -.668102875352D-04 -.159161572810D-11  .000000000000D+00
     .510000000000D+02  .708750000000D+02  .438946855327D-08  .783020194448D+00
     .371225178242D-05  .743696314748D-02  .364333391190D-05  .515375913239D+04
     .439184000000D+06  .577419996262D-07  .191211556921D+01  .126659870148D-06
     .963573583290D+00  .310187500000D+03  .162525428031D+00 -.819712715753D-08
     .122862260563D-09  .100000000000D+01  .220800000000D+04  .000000000000D+00
     .240000000000D+01  .000000000000D+00  .512227416039D-08  .510000000000D+02
     .432000000000D+06  .400000000000D+01
18 22  5  7  0  0  0.0  .176907517016D-03 -.100044417195D-10  .000000000000D+00
     .490000000000D+02 -.382187500000D+02  .445518557636D-08 -.209795939794D+01
    -.203959643841D-05  .227267190348D-02  .362284481525D-05  .515360601425D+04
     .518400000000D+06 -.465661287308D-07  .299974587836D+01 -.614672899246D-07
     .971678660008D+00  .319468750000D+03  .304285937908D+01 -.816248285732D-08
     .339299847486D-10  .100000000000D+01  .220800000000D+04  .000000000000D+00
     .240000000000D+01  .000000000000D+00 -.838190317154D-08  .561000000000D+03
     .511200000000D+06  .400000000000D+01
11 22  5  7  0  0  0.0 -.283936969936D-04  .534328137292D-11  .000000000000D+00
     .780000000000D+02 -.530625000000D+02  .464197907135D-08 -.299947471479D+00
    -.265799462795D-05  .330813811161D-03  .371411442757D-05  .515357357979D+04
     .518400000000D+06 -.745058059692D-07  .303499510453D+01  .149011611938D-07
     .963041947157D+00  .310093750000D+03  .286168025190D+01 -.824355766298D-08
     .350014579512D-10  .100000000000D+01  .220800000000D+04  .000000000000D+00
     .240000000000D+01  .630000000000D+02 -.838190317154D-08  .780000000000D+02
     .511200000000D+06  .400000000000D+01
28 22  5  7  0  0  0.0  .362142920494D-03 -.602540239925D-11  .000000000000D+00
     .105000000000D+03  .620937500000D+02  .422160441820D-08  .248517135188D+00
     .319443643093D-05  .165841303533D-01  .814907252789D-05  .515368493462D+04
     .518400000000D+06 -.141561031342D-06  .978323473842D+00 -.216066837311D-06
     .968595324626D+00  .229062500000D+03 -.127952913240D+01 -.809533720329D-08
    -.158935191717D-09  .100000000000D+01  .220800000000D+04  .000000000000D+00
     .340000000000D+01  .630000000000D+02 -.111758708954D-07  .105000000000D+03
     .511200000000D+06  .400000000000D+01
8  22  5  6 23 59 44.0 -.669462606311D-04 -.159161572810D-11  .000000000000D+00
     .140000000000D+02  .620625000000D+02  .444732810621D-08 -.232374868466D+00
     .341236591339D-05  .743894849438D-02  .480376183987D-05  .515375843430D+04
     .518384000000D+06  .100582838058D-06  .191147077929D+01 -.745058059692D-08
     .963576523756D+00  .286343750000D+03  .162956397845D+00 -.821248494010D-08
     .140720147273D-09  .100000000000D+01  .220800000000D+04  .000000000000D+00
     .240000000000D+01  .000000000000D+00  .512227416039D-08  .140000000000D+02
     .511830000000D+06  .400000000000D+01
17 22  5  6 23 59 44.0  .609491020441D-03  .466116034659D-11  .000000000000D+00
     .300000000000D+01  .562812500000D+02  .421803284086D-08 -.267450076141D+00
     .273250043392D-05  .135130482959D-01  .457651913166D-05  .515354659653D+04
     .518384000000D+06 -.212341547012D-06  .199463618577D+01  .447034835815D-07
     .978798268294D+00  .304968750000D+03 -.149432763702D+01 -.820962767823D-08
     .175721605224D-09  .100000000000D+01  .220800000000D+04  .000000000000D+00
     .240000000000D+01  .000000000000D+00 -.111758708954D-07  .300000000000D+01
     .511950000000D+06  .400000000000D+01
